{"spkid": "50765663", "covariance": {"labels": ["e", "q", "tp", "node", "peri", "i"], "elements": [{"sigma": 3.40875373064738e-07, "name": "e", "value": ".2569949549426546", "title": "eccentricity", "units": null, "label": "e"}, {"sigma": 2.86916253734873e-07, "name": "q", "units": "au", "value": ".628640556377711", "title": "perihelion distance", "label": "q"}, {"label": "tp", "units": "TDB", "title": "time of perihelion passage", "value": "2459269.376091079713", "sigma": 0.000107877176370916, "name": "tp"}, {"label": "node", "name": "om", "sigma": 1.07668260322658e-05, "value": "78.01536204196768", "title": "longitude of the ascending node", "units": "deg"}, {"value": "161.6168141503981", "title": "argument of perihelion", "units": "deg", "name": "w", "sigma": 8.35001674413204e-05, "label": "peri"}, {"title": "inclination", "value": "8.298885830126995", "units": "deg", "sigma": 4.31308124777739e-05, "name": "i", "label": "i"}], "data": [["1.161960199620242E-13", "-9.780067410250676E-14", "-2.382334467792454E-11", "1.536198281727023E-12", "-1.453525347619315E-11", "7.587952309086647E-12"], ["-9.780067410250676E-14", "8.232093665725427E-14", "2.019474708259737E-11", "-1.290890018614544E-12", "1.235703257299985E-11", "-6.322628714003787E-12"], ["-2.382334467792454E-11", "2.019474708259737E-11", "1.163748518176172E-8", "-2.741945278282652E-10", "8.829087005931623E-9", "1.262015553397141E-9"], ["1.536198281727023E-12", "-1.290890018614544E-12", "-2.741945278282652E-10", "1.159245428090767E-10", "-2.474649554280358E-10", "1.863483237562006E-10"], ["-1.453525347619315E-11", "1.235703257299985E-11", "8.829087005931623E-9", "-2.474649554280358E-10", "6.97227796272854E-9", "1.433383523440346E-9"], ["7.587952309086647E-12", "-6.322628714003787E-12", "1.262015553397141E-9", "1.863483237562006E-10", "1.433383523440346E-9", "1.8602669849929E-9"]], "epoch": "2459310.5"}, "elements": [{"label": "e", "units": null, "title": "eccentricity", "value": ".2571069347695127", "sigma": "3.4107E-7", "name": "e"}, {"label": "a", "name": "a", "sigma": "3.1303E-9", "title": "semi-major axis", "value": ".8461270253320199", "units": "au"}, {"label": "q", "title": "perihelion distance", "value": ".6285818994232584", "units": "au", "sigma": "2.8633E-7", "name": "q"}, {"name": "i", "sigma": "4.3255E-5", "title": "inclination; angle with respect to x-y ecliptic plane", "value": "8.283001597121233", "units": "deg", "label": "i"}, {"label": "node", "units": "deg", "title": "longitude of the ascending node", "value": "77.92515549932358", "sigma": "1.1115E-5", "name": "om"}, {"units": "deg", "title": "argument of perihelion", "value": "161.5041345007008", "name": "w", "sigma": "8.3396E-5", "label": "peri"}, {"label": "M", "sigma": ".00013397", "name": "ma", "units": "deg", "title": "mean anomaly", "value": "285.8786243519588"}, {"units": "TDB", "value": "2461259.031916861124", "title": "time of perihelion passage", "name": "tp", "sigma": ".00010562", "label": "tp"}, {"units": "d", "title": "sidereal orbital period", "value": "284.2835806240378", "sigma": "1.5776E-6", "name": "per", "label": "period"}, {"label": "n", "units": "deg/d", "value": "1.266341162615706", "title": "mean motion", "name": "n", "sigma": "7.0273E-9"}, {"units": "au", "title": "aphelion distance", "value": "1.063672151240781", "name": "ad", "sigma": "3.9351E-9", "label": "Q"}], "epoch": "2461200.5"}